STARLINK-4567           
1 53970U 22125G   25225.57550873  .00000672  00000+0  60299-4 0  9996
2 53970  53.2175  73.4264 0001340  82.6543 277.4601 15.08839529157988
STARLINK-4639           
1 53971U 22125H   25225.52695772  .00029167  00000+0  74507-3 0  9996
2 53971  53.2185  66.2375 0000581 120.9686 239.1376 15.39261410158070
STARLINK-5156           
1 53973U 22125K   25225.56215321  .00000235  00000+0  32861-4 0  9993
2 53973  53.2173  78.3202 0002020  89.0155 271.1069 15.08834530157909
STARLINK-5159           
1 53974U 22125L   25225.53083479  .00001586  00000+0  11771-3 0  9994
2 53974  53.2175  58.1851 0001286  84.7235 275.3904 15.08842624158180
STARLINK-5137           
1 53975U 22125M   25225.00136848 -.00000920  00000+0 -39719-4 0  9992
2 53975  53.2172  75.5379 0001452  90.4074 269.7085 15.08840932157890
STARLINK-5134           
1 53976U 22125N   25225.51249825  .00000180  00000+0  29406-4 0  9997
2 53976  53.2175  58.7817 0001312  90.4344 269.6799 15.08836140158178
STARLINK-5094           
1 53977U 22125P   25225.31791430  .00000224  00000+0  32160-4 0  9990
2 53977  53.2174  74.6521 0001381  89.0557 271.0593 15.08840264157937
STARLINK-5148           
1 53978U 22125Q   25225.56445288  .00000013  00000+0  18916-4 0  9994
2 53978  53.2173  73.3470 0001330  90.5105 269.6039 15.08837535157975
STARLINK-5123           
1 53979U 22125R   25225.30686383 -.00000076  00000+0  13336-4 0  9991
2 53979  53.2173  74.5834 0001308  85.5034 274.6107 15.08838580157932
STARLINK-5133           
1 53980U 22125S   25224.88362776  .00000454  00000+0  46591-4 0  9990
2 53980  53.2172  76.2067 0001321  91.2622 268.8522 15.08835772157871
STARLINK-5149           
1 53981U 22125T   25225.28061422  .00000614  00000+0  56644-4 0  9998
2 53981  53.2169  59.4823 0001408  87.8228 272.2925 15.08838952158140
STARLINK-5120           
1 53982U 22125U   25225.30916607 -.00000402  00000+0 -71963-5 0  9995
2 53982  53.2181  69.6155 0001455  86.0135 274.1023 15.08840845157992
STARLINK-5103           
1 53983U 22125V   25225.55294055 -.00000772  00000+0 -30444-4 0  9997
2 53983  53.2178  58.3197 0001415  90.7743 269.3411 15.08840934158181
STARLINK-5142           
1 53984U 22125W   25224.98902127  .00000368  00000+0  41234-4 0  9998
2 53984  53.2177  71.1708 0001368  84.2019 275.9129 15.08834819157951
STARLINK-5147           
1 53985U 22125X   25225.59254990  .00000052  00000+0  21330-4 0  9990
2 53985  53.2171  68.5380 0001327  88.2988 271.8157 15.08837718158044
STARLINK-5119           
1 53986U 22125Y   25225.53820203  .00000461  00000+0  47062-4 0  9995
2 53986  53.2175  58.2335 0001326  82.3643 277.7500 15.08841535158170
STARLINK-5113           
1 53988U 22125AA  25225.58149707  .00000020  00000+0  19328-4 0  9990
2 53988  53.2167  68.4706 0001427  85.1532 274.9623 15.08837680158034
