[{"OBJECT_NAME":"STARLINK-4567","OBJECT_ID":"2022-125G","EPOCH":"2025-08-13T13:48:43.954272","MEAN_MOTION":15.08839529,"ECCENTRICITY":0.000134,"INCLINATION":53.2175,"RA_OF_ASC_NODE":73.4264,"ARG_OF_PERICENTER":82.6543,"MEAN_ANOMALY":277.4601,"EPHEMERIS_TYPE":0,"CLASSIFICATION_TYPE":"U","NORAD_CAT_ID":53970,"ELEMENT_SET_NO":999,"REV_AT_EPOCH":15798,"BSTAR":6.0299e-5,"MEAN_MOTION_DOT":6.72e-6,"MEAN_MOTION_DDOT":0},{"OBJECT_NAME":"STARLINK-4639","OBJECT_ID":"2022-125H","EPOCH":"2025-08-13T12:38:49.147008","MEAN_MOTION":15.3926141,"ECCENTRICITY":5.81e-5,"INCLINATION":53.2185,"RA_OF_ASC_NODE":66.2375,"ARG_OF_PERICENTER":120.9686,"MEAN_ANOMALY":239.1376,"EPHEMERIS_TYPE":0,"CLASSIFICATION_TYPE":"U","NORAD_CAT_ID":53971,"ELEMENT_SET_NO":999,"REV_AT_EPOCH":15807,"BSTAR":0.00074507,"MEAN_MOTION_DOT":0.00029167,"MEAN_MOTION_DDOT":0},{"OBJECT_NAME":"STARLINK-5156","OBJECT_ID":"2022-125K","EPOCH":"2025-08-13T13:29:30.037344","MEAN_MOTION":15.0883453,"ECCENTRICITY":0.000202,"INCLINATION":53.2173,"RA_OF_ASC_NODE":78.3202,"ARG_OF_PERICENTER":89.0155,"MEAN_ANOMALY":271.1069,"EPHEMERIS_TYPE":0,"CLASSIFICATION_TYPE":"U","NORAD_CAT_ID":53973,"ELEMENT_SET_NO":999,"REV_AT_EPOCH":15790,"BSTAR":3.2861e-5,"MEAN_MOTION_DOT":2.35e-6,"MEAN_MOTION_DDOT":0},{"OBJECT_NAME":"STARLINK-5159","OBJECT_ID":"2022-125L","EPOCH":"2025-08-13T12:44:24.125856","MEAN_MOTION":15.08842624,"ECCENTRICITY":0.0001286,"INCLINATION":53.2175,"RA_OF_ASC_NODE":58.1851,"ARG_OF_PERICENTER":84.7235,"MEAN_ANOMALY":275.3904,"EPHEMERIS_TYPE":0,"CLASSIFICATION_TYPE":"U","NORAD_CAT_ID":53974,"ELEMENT_SET_NO":999,"REV_AT_EPOCH":15818,"BSTAR":0.00011771,"MEAN_MOTION_DOT":1.586e-5,"MEAN_MOTION_DDOT":0},{"OBJECT_NAME":"STARLINK-5137","OBJECT_ID":"2022-125M","EPOCH":"2025-08-13T00:01:58.236672","MEAN_MOTION":15.08840932,"ECCENTRICITY":0.0001452,"INCLINATION":53.2172,"RA_OF_ASC_NODE":75.5379,"ARG_OF_PERICENTER":90.4074,"MEAN_ANOMALY":269.7085,"EPHEMERIS_TYPE":0,"CLASSIFICATION_TYPE":"U","NORAD_CAT_ID":53975,"ELEMENT_SET_NO":999,"REV_AT_EPOCH":15789,"BSTAR":-3.9719e-5,"MEAN_MOTION_DOT":-9.2e-6,"MEAN_MOTION_DDOT":0},{"OBJECT_NAME":"STARLINK-5134","OBJECT_ID":"2022-125N","EPOCH":"2025-08-13T12:17:59.848800","MEAN_MOTION":15.0883614,"ECCENTRICITY":0.0001312,"INCLINATION":53.2175,"RA_OF_ASC_NODE":58.7817,"ARG_OF_PERICENTER":90.4344,"MEAN_ANOMALY":269.6799,"EPHEMERIS_TYPE":0,"CLASSIFICATION_TYPE":"U","NORAD_CAT_ID":53976,"ELEMENT_SET_NO":999,"REV_AT_EPOCH":15817,"BSTAR":2.9406e-5,"MEAN_MOTION_DOT":1.8e-6,"MEAN_MOTION_DDOT":0},{"OBJECT_NAME":"STARLINK-5094","OBJECT_ID":"2022-125P","EPOCH":"2025-08-13T07:37:47.795520","MEAN_MOTION":15.08840264,"ECCENTRICITY":0.0001381,"INCLINATION":53.2174,"RA_OF_ASC_NODE":74.6521,"ARG_OF_PERICENTER":89.0557,"MEAN_ANOMALY":271.0593,"EPHEMERIS_TYPE":0,"CLASSIFICATION_TYPE":"U","NORAD_CAT_ID":53977,"ELEMENT_SET_NO":999,"REV_AT_EPOCH":15793,"BSTAR":3.216e-5,"MEAN_MOTION_DOT":2.24e-6,"MEAN_MOTION_DDOT":0},{"OBJECT_NAME":"STARLINK-5148","OBJECT_ID":"2022-125Q","EPOCH":"2025-08-13T13:32:48.728832","MEAN_MOTION":15.08837535,"ECCENTRICITY":0.000133,"INCLINATION":53.2173,"RA_OF_ASC_NODE":73.347,"ARG_OF_PERICENTER":90.5105,"MEAN_ANOMALY":269.6039,"EPHEMERIS_TYPE":0,"CLASSIFICATION_TYPE":"U","NORAD_CAT_ID":53978,"ELEMENT_SET_NO":999,"REV_AT_EPOCH":15797,"BSTAR":1.8916e-5,"MEAN_MOTION_DOT":1.3e-7,"MEAN_MOTION_DDOT":0},{"OBJECT_NAME":"STARLINK-5123","OBJECT_ID":"2022-125R","EPOCH":"2025-08-13T07:21:53.034912","MEAN_MOTION":15.0883858,"ECCENTRICITY":0.0001308,"INCLINATION":53.2173,"RA_OF_ASC_NODE":74.5834,"ARG_OF_PERICENTER":85.5034,"MEAN_ANOMALY":274.6107,"EPHEMERIS_TYPE":0,"CLASSIFICATION_TYPE":"U","NORAD_CAT_ID":53979,"ELEMENT_SET_NO":999,"REV_AT_EPOCH":15793,"BSTAR":1.3336e-5,"MEAN_MOTION_DOT":-7.6e-7,"MEAN_MOTION_DDOT":0},{"OBJECT_NAME":"STARLINK-5133","OBJECT_ID":"2022-125S","EPOCH":"2025-08-12T21:12:25.438464","MEAN_MOTION":15.08835772,"ECCENTRICITY":0.0001321,"INCLINATION":53.2172,"RA_OF_ASC_NODE":76.2067,"ARG_OF_PERICENTER":91.2622,"MEAN_ANOMALY":268.8522,"EPHEMERIS_TYPE":0,"CLASSIFICATION_TYPE":"U","NORAD_CAT_ID":53980,"ELEMENT_SET_NO":999,"REV_AT_EPOCH":15787,"BSTAR":4.6591e-5,"MEAN_MOTION_DOT":4.54e-6,"MEAN_MOTION_DDOT":0},{"OBJECT_NAME":"STARLINK-5149","OBJECT_ID":"2022-125T","EPOCH":"2025-08-13T06:44:05.068608","MEAN_MOTION":15.08838952,"ECCENTRICITY":0.0001408,"INCLINATION":53.2169,"RA_OF_ASC_NODE":59.4823,"ARG_OF_PERICENTER":87.8228,"MEAN_ANOMALY":272.2925,"EPHEMERIS_TYPE":0,"CLASSIFICATION_TYPE":"U","NORAD_CAT_ID":53981,"ELEMENT_SET_NO":999,"REV_AT_EPOCH":15814,"BSTAR":5.6644e-5,"MEAN_MOTION_DOT":6.14e-6,"MEAN_MOTION_DDOT":0},{"OBJECT_NAME":"STARLINK-5120","OBJECT_ID":"2022-125U","EPOCH":"2025-08-13T07:25:11.948448","MEAN_MOTION":15.08840845,"ECCENTRICITY":0.0001455,"INCLINATION":53.2181,"RA_OF_ASC_NODE":69.6155,"ARG_OF_PERICENTER":86.0135,"MEAN_ANOMALY":274.1023,"EPHEMERIS_TYPE":0,"CLASSIFICATION_TYPE":"U","NORAD_CAT_ID":53982,"ELEMENT_SET_NO":999,"REV_AT_EPOCH":15799,"BSTAR":-7.1963e-6,"MEAN_MOTION_DOT":-4.02e-6,"MEAN_MOTION_DDOT":0},{"OBJECT_NAME":"STARLINK-5103","OBJECT_ID":"2022-125V","EPOCH":"2025-08-13T13:16:14.063520","MEAN_MOTION":15.08840934,"ECCENTRICITY":0.0001415,"INCLINATION":53.2178,"RA_OF_ASC_NODE":58.3197,"ARG_OF_PERICENTER":90.7743,"MEAN_ANOMALY":269.3411,"EPHEMERIS_TYPE":0,"CLASSIFICATION_TYPE":"U","NORAD_CAT_ID":53983,"ELEMENT_SET_NO":999,"REV_AT_EPOCH":15818,"BSTAR":-3.0444e-5,"MEAN_MOTION_DOT":-7.72e-6,"MEAN_MOTION_DDOT":0},{"OBJECT_NAME":"STARLINK-5142","OBJECT_ID":"2022-125W","EPOCH":"2025-08-12T23:44:11.437728","MEAN_MOTION":15.08834819,"ECCENTRICITY":0.0001368,"INCLINATION":53.2177,"RA_OF_ASC_NODE":71.1708,"ARG_OF_PERICENTER":84.2019,"MEAN_ANOMALY":275.9129,"EPHEMERIS_TYPE":0,"CLASSIFICATION_TYPE":"U","NORAD_CAT_ID":53984,"ELEMENT_SET_NO":999,"REV_AT_EPOCH":15795,"BSTAR":4.1234e-5,"MEAN_MOTION_DOT":3.68e-6,"MEAN_MOTION_DDOT":0},{"OBJECT_NAME":"STARLINK-5147","OBJECT_ID":"2022-125X","EPOCH":"2025-08-13T14:13:16.311360","MEAN_MOTION":15.08837718,"ECCENTRICITY":0.0001327,"INCLINATION":53.2171,"RA_OF_ASC_NODE":68.538,"ARG_OF_PERICENTER":88.2988,"MEAN_ANOMALY":271.8157,"EPHEMERIS_TYPE":0,"CLASSIFICATION_TYPE":"U","NORAD_CAT_ID":53985,"ELEMENT_SET_NO":999,"REV_AT_EPOCH":15804,"BSTAR":2.133e-5,"MEAN_MOTION_DOT":5.2e-7,"MEAN_MOTION_DDOT":0},{"OBJECT_NAME":"STARLINK-5119","OBJECT_ID":"2022-125Y","EPOCH":"2025-08-13T12:55:00.655392","MEAN_MOTION":15.08841535,"ECCENTRICITY":0.0001326,"INCLINATION":53.2175,"RA_OF_ASC_NODE":58.2335,"ARG_OF_PERICENTER":82.3643,"MEAN_ANOMALY":277.75,"EPHEMERIS_TYPE":0,"CLASSIFICATION_TYPE":"U","NORAD_CAT_ID":53986,"ELEMENT_SET_NO":999,"REV_AT_EPOCH":15817,"BSTAR":4.7062e-5,"MEAN_MOTION_DOT":4.61e-6,"MEAN_MOTION_DDOT":0},{"OBJECT_NAME":"STARLINK-5113","OBJECT_ID":"2022-125AA","EPOCH":"2025-08-13T13:57:21.346848","MEAN_MOTION":15.0883768,"ECCENTRICITY":0.0001427,"INCLINATION":53.2167,"RA_OF_ASC_NODE":68.4706,"ARG_OF_PERICENTER":85.1532,"MEAN_ANOMALY":274.9623,"EPHEMERIS_TYPE":0,"CLASSIFICATION_TYPE":"U","NORAD_CAT_ID":53988,"ELEMENT_SET_NO":999,"REV_AT_EPOCH":15803,"BSTAR":1.9328e-5,"MEAN_MOTION_DOT":2.0e-7,"MEAN_MOTION_DDOT":0}]
